NORAD_CAT_ID,OBJECT_NAME,OBJECT_TYPE,EPOCH,MEAN_MOTION,ECCENTRICITY,INCLINATION,RA_OF_ASC_NODE,ARG_OF_PERICENTER,MEAN_ANOMALY,BSTAR,MEAN_MOTION_DOT,MEAN_MOTION_DDOT,TLE_LINE0,TLE_LINE1,TLE_LINE2,SEMIMAJOR_AXIS,PERIOD,APOGEE,PERIGEE,DECAYED
54162.0,STARLINK-5273,PAYLOAD,2023-01-06 04:40:19,15.08849533,0.0001576999999999,53.2182,174.8258,63.3567,296.7587,8.9635e-06,-1.45e-06,0.0,0 STARLINK-5273,1 54162U 22141F   23006.19467407 -.00000145  00000-0  89635-5 0  9994,2 54162  53.2182 174.8258 0001577  63.3567 296.7587 15.08849533 10827,6917.851,95.437,540.807,538.625,0.0
54162.0,STARLINK-5273,PAYLOAD,2023-01-06 14:12:39,15.08829671,0.0001702,53.2178,173.0419,64.2561,295.8607,-4.6192e-05,-1.023e-05,0.0,0 STARLINK-5273,1 54162U 22141F   23006.59212706 -.00001023  00000-0 -46192-4 0  9995,2 54162  53.2178 173.0419 0001702  64.2561 295.8607 15.08829671 10886,6917.911999999998,95.438,540.9540000000002,538.6,0.0
54162.0,STARLINK-5273,PAYLOAD,2023-01-06 20:34:12,15.08829788,0.0001717,53.2178,171.8525,64.2801,295.8368,-4.5978e-05,-1.02e-05,0.0,0 STARLINK-5273,1 54162U 22141F   23006.85708833 -.00001020  00000-0 -45978-4 0  9993,2 54162  53.2178 171.8525 0001717  64.2801 295.8368 15.08829788 10921,6917.911999999998,95.438,540.964,538.589,0.0
54162.0,STARLINK-5273,PAYLOAD,2023-01-07 04:31:07,15.08833311,0.0001723,53.2179,170.366,64.0187,296.0983,-7.2778e-07,-3e-06,0.0,0 STARLINK-5273,1 54162U 22141F   23007.18828658 -.00000300  00000-0 -72778-6 0  9998,2 54162  53.2179 170.3660 0001723  64.0187 296.0983 15.08833311 10976,6917.901,95.438,540.9580000000002,538.5740000000002,0.0
54162.0,STARLINK-5273,PAYLOAD,2023-01-07 10:52:40,15.08838716,0.0001714,53.2179,169.1761,64.7111,295.4059,-1.0983e-06,-3.06e-06,0.0,0 STARLINK-5273,1 54162U 22141F   23007.45324366 -.00000306  00000-0 -10983-5 0  9990,2 54162  53.2179 169.1761 0001714  64.7111 295.4059 15.08838716 11015,6917.884,95.438,540.935,538.564,0.0
54162.0,STARLINK-5273,PAYLOAD,2023-01-07 14:03:26,15.08840742,0.0001735,53.2178,168.5815,64.683,295.4342,1.5306e-05,-4.4e-07,0.0,0 STARLINK-5273,1 54162U 22141F   23007.58572196 -.00000044  00000-0  15306-4 0  9991,2 54162  53.2178 168.5815 0001735  64.6830 295.4342 15.08840742 11036,6917.8780000000015,95.438,540.943,538.543,0.0
54162.0,STARLINK-5273,PAYLOAD,2023-01-08 20:15:45,15.08838301,0.0001778,53.2174,162.933,59.5686,300.5482,0.00015478,2.176e-05,0.0,0 STARLINK-5273,1 54162U 22141F   23008.84428083  .00002176  00000-0  15478-3 0  9992,2 54162  53.2174 162.9330 0001778  59.5686 300.5482 15.08838301 11223,6917.886,95.438,540.981,538.521,0.0
54162.0,STARLINK-5273,PAYLOAD,2023-01-09 10:34:14,15.08841215,0.0001818,53.2175,160.2562,62.2473,297.8704,8.575799999999999e-05,1.077e-05,0.0,0 STARLINK-5273,1 54162U 22141F   23009.44044213  .00001077  00000-0  85758-4 0  9996,2 54162  53.2175 160.2562 0001818  62.2473 297.8704 15.08841215 11315,6917.877,95.437,540.999,538.484,0.0
54162.0,STARLINK-5273,PAYLOAD,2023-01-09 16:55:46,15.08844767,0.0001838,53.2174,159.0671,62.0658,298.052,0.00010693,1.414e-05,0.0,0 STARLINK-5273,1 54162U 22141F   23009.70539917  .00001414  00000-0  10693-3 0  9995,2 54162  53.2174 159.0671 0001838  62.0658 298.0520 15.08844767 11354,6917.866,95.437,541.002,538.4590000000002,0.0
54162.0,STARLINK-5273,PAYLOAD,2023-01-10 02:28:05,15.08842046,0.0001802,53.2173,157.2836,57.2479,302.8686,3.9769e-05,3.45e-06,0.0,0 STARLINK-5273,1 54162U 22141F   23010.10284182  .00000345  00000-0  39769-4 0  9990,2 54162  53.2173 157.2836 0001802  57.2479 302.8686 15.08842046 11416,6917.874,95.437,540.986,538.493,0.0
54162.0,STARLINK-5273,PAYLOAD,2023-01-10 10:25:01,15.08838163,0.0001994,53.2169,155.7963,60.825,299.2942,-7.0098e-06,-4e-06,0.0,0 STARLINK-5273,1 54162U 22141F   23010.43404623 -.00000400  00000-0 -70098-5 0  9995,2 54162  53.2169 155.7963 0001994  60.8250 299.2942 15.08838163 11468,6917.886,95.438,541.13,538.372,0.0
54162.0,STARLINK-5273,PAYLOAD,2023-01-10 18:21:57,15.0883742,0.0001818,53.2163,154.3104,63.0664,297.0513,-1.9992e-05,-6.06e-06,0.0,0 STARLINK-5273,1 54162U 22141F   23010.76524624 -.00000606  00000-0 -19992-4 0  9998,2 54162  53.2163 154.3104 0001818  63.0664 297.0513 15.08837420 11514,6917.888000000001,95.438,541.011,538.496,0.0
54162.0,STARLINK-5273,PAYLOAD,2023-01-11 13:26:34,15.08842806,0.0001836,53.2181,150.7416,60.3238,299.7937,0.00011655,1.567e-05,0.0,0 STARLINK-5273,1 54162U 22141F   23011.56011861  .00001567  00000-0  11655-3 0  9993,2 54162  53.2181 150.7416 0001836  60.3238 299.7937 15.08842806 11633,6917.871999999999,95.437,541.007,538.467,0.0
54162.0,STARLINK-5273,PAYLOAD,2023-01-11 18:12:43,15.08850214,0.0001889,53.2187,149.8486,53.4567,306.6599,7.9892e-05,9.84e-06,0.0,0 STARLINK-5273,1 54162U 22141F   23011.75883413  .00000984  00000-0  79892-4 0  9994,2 54162  53.2187 149.8486 0001889  53.4567 306.6599 15.08850214 11668,6917.849,95.437,541.021,538.4069999999998,0.0
54162.0,STARLINK-5273,PAYLOAD,2023-01-12 02:09:40,15.0882791,0.000161,53.2168,148.3633,61.6747,298.4408,-6.2344e-05,-1.28e-05,0.0,0 STARLINK-5273,1 54162U 22141F   23012.09005288 -.00001280  00000-0 -62344-4 0  9994,2 54162  53.2168 148.3633 0001610  61.6747 298.4408 15.08827910 11718,6917.917,95.438,540.896,538.669,0.0
54162.0,STARLINK-5273,PAYLOAD,2023-01-12 16:28:10,15.08814742,0.0001730999999999,53.219,145.6861,60.0778,300.0386,-9.8632e-05,-1.856e-05,0.0,0 STARLINK-5273,1 54162U 22141F   23012.68622918 -.00001856  00000-0 -98632-4 0  9992,2 54162  53.2190 145.6861 0001731  60.0778 300.0386 15.08814742 11801,6917.958000000001,95.439,541.02,538.625,0.0
54162.0,STARLINK-5273,PAYLOAD,2023-01-13 02:00:27,15.08858381,0.00014,53.2241,143.9029,35.6451,324.4635,-0.00044823,-7.418e-05,0.0,0 STARLINK-5273,1 54162U 22141F   23013.08365055 -.00007418  00000-0 -44823-3 0  9995,2 54162  53.2241 143.9029 0001400  35.6451 324.4635 15.08858381 11864,6917.824000000001,95.436,540.658,538.721,0.0
54162.0,STARLINK-5273,PAYLOAD,2023-01-13 14:43:32,15.08847958,0.0001465999999999,53.2174,141.5229,46.3303,313.781,0.00010439,1.374e-05,0.0,0 STARLINK-5273,1 54162U 22141F   23013.61356887  .00001374  00000-0  10439-3 0  9996,2 54162  53.2174 141.5229 0001466  46.3303 313.7810 15.08847958 11945,6917.856,95.437,540.735,538.707,0.0
54162.0,STARLINK-5273,PAYLOAD,2023-01-13 17:54:18,15.08851326,0.000153,53.2166,140.9285,52.5477,307.5654,0.00034501,5.209e-05,0.0,0 STARLINK-5273,1 54162U 22141F   23013.74605192  .00005209  00000-0  34501-3 0  9993,2 54162  53.2166 140.9285 0001530  52.5477 307.5654 15.08851326 11967,6917.846,95.437,540.769,538.6519999999999,0.0
54162.0,STARLINK-5273,PAYLOAD,2023-01-14 01:51:15,15.08835606,0.0001396999999999,53.2173,139.4428,61.7659,298.3474,0.00037233,5.642e-05,0.0,0 STARLINK-5273,1 54162U 22141F   23014.07726278  .00005642  00000-0  37233-3 0  9995,2 54162  53.2173 139.4428 0001397  61.7659 298.3474 15.08835606 12019,6917.894,95.438,540.725,538.7919999999999,0.0
54162.0,STARLINK-5273,PAYLOAD,2023-01-14 16:09:43,15.08855596,0.0001471,53.2164,136.7651,69.1058,291.0091,0.00057199,8.831e-05,0.0,0 STARLINK-5273,1 54162U 22141F   23014.67341824  .00008831  00000-0  57199-3 0  9997,2 54162  53.2164 136.7651 0001471  69.1058 291.0091 15.08855596 12100,6917.8330000000005,95.437,540.715,538.68,0.0
54162.0,STARLINK-5273,PAYLOAD,2023-01-15 08:03:35,15.08841857,0.0001924,53.2147,133.793,71.0408,289.0793,0.00022522,3.298e-05,0.0,0 STARLINK-5273,1 54162U 22141F   23015.33582455  .00003298  00000-0  22522-3 0  9992,2 54162  53.2147 133.7930 0001924  71.0408 289.0793 15.08841857 12204,6917.875,95.437,541.071,538.409,0.0
54162.0,STARLINK-5273,PAYLOAD,2023-01-15 14:25:07,15.08844543,0.0001165,53.2165,132.6035,74.2129,285.8991,0.00037794,5.733e-05,0.0,0 STARLINK-5273,1 54162U 22141F   23015.60078324  .00005733  00000-0  37794-3 0  9990,2 54162  53.2165 132.6035 0001165  74.2129 285.8991 15.08844543 12243,6917.866999999999,95.437,540.5369999999999,538.9259999999999,0.0
54162.0,STARLINK-5273,PAYLOAD,2023-01-16 11:05:08,15.08852222,0.0001134,53.2179,128.7357,84.8748,275.2374,0.00064433,9.985e-05,0.0,0 STARLINK-5273,1 54162U 22141F   23016.46190291  .00009985  00000-0  64433-3 0  9996,2 54162  53.2179 128.7357 0001134  84.8748 275.2374 15.08852222 12376,6917.843000000001,95.437,540.493,538.924,0.0
54162.0,STARLINK-5273,PAYLOAD,2023-01-16 14:15:54,15.08869251,0.0001142,53.217,128.1409,85.6254,274.4868,0.0012748,0.00020075,0.0,0 STARLINK-5273,1 54162U 22141F   23016.59438151  .00020075  00000-0  12748-2 0  9994,2 54162  53.2170 128.1409 0001142  85.6254 274.4868 15.08869251 12390,6917.791,95.436,540.446,538.866,0.0
54162.0,STARLINK-5273,PAYLOAD,2023-01-16 15:51:17,15.08870577,0.0001151,53.2168,127.8445,86.181,273.9313,0.0012884,0.00020293,0.0,0 STARLINK-5273,1 54162U 22141F   23016.66062023  .00020293  00000-0  12884-2 0  9996,2 54162  53.2168 127.8445 0001151  86.1810 273.9313 15.08870577 12401,6917.786999999999,95.436,540.448,538.856,0.0
54162.0,STARLINK-5273,PAYLOAD,2023-01-16 23:48:13,15.08838294,0.0001151,53.2152,126.3602,102.939,257.173,-0.00029249,-4.94e-05,0.0,0 STARLINK-5273,1 54162U 22141F   23016.99182411 -.00004940  00000-0 -29249-3 0  9993,2 54162  53.2152 126.3602 0001151 102.9390 257.1730 15.08838294 12455,6917.886,95.438,540.547,538.9540000000001,0.0
54162.0,STARLINK-5273,PAYLOAD,2023-01-17 07:45:09,15.08812239,0.0001264999999999,53.2163,124.8721,102.2295,257.8839,-0.00037729,-6.283e-05,0.0,0 STARLINK-5273,1 54162U 22141F   23017.32303179 -.00006283  00000-0 -37729-3 0  9991,2 54162  53.2163 124.8721 0001265 102.2295 257.8839 15.08812239 12509,6917.965,95.439,540.705,538.955,0.0
54162.0,STARLINK-5273,PAYLOAD,2023-01-17 14:06:42,15.088228400000002,0.0001725,53.2165,123.6824,105.598,254.5203,0.00055387,8.534e-05,0.0,0 STARLINK-5273,1 54162U 22141F   23017.58799637  .00008534  00000-0  55387-3 0  9996,2 54162  53.2165 123.6824 0001725 105.5980 254.5203 15.08822840 12542,6917.933000000001,95.439,540.991,538.604,0.0
